CUTE-1 (CO-55)          
1 27844U 03031E   26186.02060450  .00000393  00000+0  18869-3 0  9991
2 27844  98.6737 194.3551 0010529 129.0136 231.1982 14.24347366194217
CUBESAT XI-IV (CO-57)   
1 27848U 03031J   26185.94773638  .00000336  00000+0  16664-3 0  9992
2 27848  98.6769 193.9817 0010102 146.4963 213.6856 14.23630898193908
CUBESAT XI-V            
1 28895U 05043F   26185.93250538  .00001992  00000+0  32024-3 0  9995
2 28895  98.3005 341.9289 0014817 145.4678 214.7495 14.72684122104364
CUTE-1.7+APD II (CO-65) 
1 32785U 08021C   26186.41140489  .00007633  00000+0  47815-3 0  9996
2 32785  97.8292 168.2116 0007776 339.2260  20.8651 15.09640403987942
CANX-2                  
1 32790U 08021H   26186.43086686  .00006586  00000+0  45875-3 0  9992
2 32790  97.8645 166.5648 0009839 351.0733   9.0316 15.05757097987558
SEEDS II (CO-66)        
1 32791U 08021J   26186.41148818  .00028464  00000+0  88139-3 0  9996
2 32791  97.7526 185.1871 0001927 181.2557 178.8680 15.33423851990088
SWISSCUBE               
1 35932U 09051B   26186.23066220  .00001420  00000+0  28964-3 0  9999
2 35932  98.4020  94.4325 0007267 146.4671 213.6991 14.62518995891790
BEESAT-1                
1 35933U 09051C   26186.31796618  .00001176  00000+0  24572-3 0  9999
2 35933  98.3947  94.1185 0005491 156.8221 203.3228 14.61752110891834
ITUPSAT1                
1 35935U 09051E   26185.70814032  .00001186  00000+0  25471-3 0  9994
2 35935  98.4031  92.6727 0007316 174.2685 185.8600 14.60469280891292
TISAT 1                 
1 36799U 10035E   26186.27433347  .00042058  00000+0  13366-2 0  9998
2 36799  98.0707 134.4370 0003726 141.6001 218.5505 15.32503280870471
AEROCUBE 4.5A           
1 38767U 12048K   26180.81601320  .02026816  74244-5  11805-2 0  9992
2 38767  64.6148 340.0554 0018867 267.4936  92.4076 16.17962819374686
STRAND-1                
1 39090U 13009E   26186.43609854  .00000394  00000+0  14690-3 0  9994
2 39090  98.3930   6.2219 0008826 168.5564 191.5825 14.37175147699683
BRITE-AUSTRIA           
1 39091U 13009F   26186.45688056  .00000249  00000+0  99258-4 0  9991
2 39091  98.4004   5.4411 0010152 178.8506 181.2706 14.36549976699674
NEE-01 PEGASO           
1 39151U 13018B   26186.21860113  .00004574  00000+0  43662-3 0  9990
2 39151  98.1251 330.9673 0013941 104.1848 256.0921 14.93758890713394
POPACS 2                
1 39269U 13055E   26185.82184007  .00027129 -75250-6  44971-3 0  9990
2 39269  80.9915 124.0034 0415832 137.1605 226.2823 14.91720341665849
POPACS 3                
1 39270U 13055F   26186.05141021  .00014826  00000+0  35090-3 0  9992
2 39270  80.9988 209.8134 0550084  15.6149 346.1267 14.56474235641157
ZACUBE-1 (TSHEPISOSAT)  
1 39417U 13066B   26186.47037739  .00004580  00000+0  35386-3 0  9997
2 39417  97.8030 148.8991 0043303 186.4218 173.6457 15.01296841683474
WNISAT-1                
1 39423U 13066H   26186.32828852  .00001680  00000+0  31236-3 0  9990
2 39423  97.7225 334.1989 0163172 174.2766 186.0351 14.58104792669371
TRITON-1                
1 39427U 13066M   26186.66388550  .00003985  00000+0  47740-3 0  9994
2 39427  97.8227  96.0495 0089838 173.0799 187.1678 14.81775708676822
GOMX-1                  
1 39430U 13066Q   26186.50257543  .00002656  00000+0  40148-3 0  9997
2 39430  97.6471  25.8087 0129076  19.3036 341.2996 14.69524758672608
CUBEBUG-2 (LO-74)       
1 39440U 13066AA  26186.28247977  .00007070  00000+0  64944-3 0  9998
2 39440  97.8914 135.3391 0056356 329.1937  30.5979 14.93923546679690
NEE-02 KRYSAOR          
1 39441U 13066AB  26186.31446080  .00003858  00000+0  42310-3 0  9992
2 39441  97.8891 125.4006 0066343  11.7209 348.5533 14.86709949678891
FUNCUBE-1 (AO-73)       
1 39444U 13066AE  26185.88720520  .00011803  00000+0  72371-3 0  9999
2 39444  97.8283 157.7053 0037405 141.4256 218.9657 15.09718097682330
UWE-3                   
1 39446U 13066AG  26186.32858405  .00004991  00000+0  42750-3 0  9993
2 39446  97.8704 142.5275 0047386 258.9822 100.6067 14.97160389680296
BRITE-CA1 (TORONTO)     
1 40020U 14033L   26186.31477191  .00001360  00000+0  21142-3 0  9995
2 40020  97.9762 314.9109 0077744 218.0903 141.4794 14.72710063644888
DUCHIFAT-1              
1 40021U 14033M   26185.71700957  .00213562  00000+0  18351-2 0  9994
2 40021  98.0425 247.3916 0000551 273.4953  86.6243 15.68680703658498
NANOSATC-BR1            
1 40024U 14033Q   26186.03967014  .00031872  00000+0  10283-2 0  9990
2 40024  98.0709 220.0161 0005239 120.9121 239.2635 15.32077751656715
QB50P1                  
1 40025U 14033R   26186.00914171  .00014051  00000+0  68234-3 0  9994
2 40025  98.0965 198.4077 0009652 155.1243 205.0457 15.18550801655732
QB50P2                  
1 40032U 14033Y   26186.45812683  .00010362  00000+0  55148-3 0  9997
2 40032  98.0762 184.4789 0009306 110.6267 249.5962 15.15417297655437
PERSEUS-M2              
1 40037U 14033AD  26186.59631892  .00002054  00000+0  19055-3 0  9994
2 40037  97.9967 137.5129 0010665 235.3418 124.6797 14.95564712653537
